     2.100          NAVIGATION                              RINEX VERSION / TYPE
fic2rin                                 01/15/2011 00:40:19 PGM / RUN BY / DATE
                                                            END OF HEADER
10 11  1 14 18  0  0.0 -.632414594293D-04 -.113686837722D-11  .000000000000D+00
     .570000000000D+02  .923750000000D+02  .470305304389D-08  .120407433848D+01
     .501610338688D-05  .995517778210D-02  .902451574802D-05  .515356937218D+04
     .496800000000D+06 -.651925802231D-07  .258181440026D+01  .119209289551D-06
     .950651926331D+00  .199968750000D+03  .687062309600D+00 -.822248535666D-08
    -.207865801302D-09  .100000000000D+01  .161800000000D+04  .000000000000D+00
     .485000000000D+01  .000000000000D+00 -.279396772385D-08  .570000000000D+02
     .489606000000D+06  .400000000000D+01
11 11  1 14 18  0  0.0 -.119277741760D-03 -.306954461848D-11  .000000000000D+00
     .750000000000D+02 -.531250000000D+01  .638526597196D-08 -.241331680081D+01
    -.501051545143D-06  .115896613570D-01  .709481537342D-05  .515348792267D+04
     .496800000000D+06  .206753611565D-06  .126548922379D+01 -.931322574615D-07
     .887724689479D+00  .200750000000D+03  .904776388003D+00 -.869250493486D-08
    -.116790579082D-09  .100000000000D+01  .161800000000D+04  .000000000000D+00
     .240000000000D+01  .000000000000D+00 -.116415321827D-07  .750000000000D+02
     .489606000000D+06  .400000000000D+01
12 11  1 14 18  0  0.0 -.358209945261D-04  .329691829393D-11  .000000000000D+00
     .870000000000D+02 -.526875000000D+02  .400159525393D-08 -.230605125995D+01
    -.267475843430D-05  .347436720040D-02  .895746052265D-05  .515352728462D+04
     .496800000000D+06 -.298023223877D-07 -.567696793364D+00 -.372529029846D-08
     .973771671533D+00  .214000000000D+03 -.322275232331D+00 -.770317801114D-08
     .334299639208D-09  .100000000000D+01  .161800000000D+04  .000000000000D+00
     .240000000000D+01  .000000000000D+00 -.116415321827D-07  .870000000000D+02
     .489606000000D+06  .400000000000D+01
13 11  1 14 18  0  0.0  .285908114165D-03 -.125055521494D-11  .000000000000D+00
     .410000000000D+02  .379062500000D+02  .396373653411D-08  .619967434189D-01
     .188313424587D-05  .438724516425D-02  .327453017235D-05  .515365818977D+04
     .496800000000D+06 -.987201929092D-07 -.259974332298D+01 -.316649675369D-07
     .991203642445D+00  .332312500000D+03  .179098638381D+01 -.807712215884D-08
    -.575023952056D-10  .100000000000D+01  .161800000000D+04  .000000000000D+00
     .240000000000D+01  .000000000000D+00 -.107102096081D-07  .410000000000D+02
     .489606000000D+06  .400000000000D+01
14 11  1 14 18  0  0.0  .123744364828D-03  .295585778076D-11  .000000000000D+00
     .360000000000D+02  .377187500000D+02  .412767193410D-08  .153857698391D-01
     .197254121304D-05  .567533797584D-02  .360608100891D-05  .515362175941D+04
     .496800000000D+06 -.186264514923D-08 -.262305798153D+01  .502914190292D-07
     .984328196649D+00  .323906250000D+03 -.207706016050D+01 -.814998233662D-08
    -.689314426998D-10  .100000000000D+01  .161800000000D+04  .000000000000D+00
     .240000000000D+01  .000000000000D+00 -.884756445885D-08  .360000000000D+02
     .489606000000D+06  .400000000000D+01
15 11  1 14 18  0  0.0 -.161297153682D-03  .386535248253D-11  .000000000000D+00
     .110000000000D+02  .519062500000D+02  .481305762603D-08 -.306295873241D+00
     .262819230556D-05  .324408127926D-02  .329874455929D-05  .515355249596D+04
     .496800000000D+06  .726431608200D-07 -.269452466328D+01  .000000000000D+00
     .951672528204D+00  .311531250000D+03 -.166916297648D+00 -.840285001243D-08
    -.450018745087D-10  .100000000000D+01  .161800000000D+04  .000000000000D+00
     .240000000000D+01  .000000000000D+00 -.977888703346D-08  .110000000000D+02
     .489606000000D+06  .400000000000D+01
16 11  1 14 18  0  0.0 -.142653938383D-03 -.306954461848D-11  .000000000000D+00
     .510000000000D+02 -.485937500000D+02  .401731019424D-08  .155428517211D+01
    -.240840017796D-05  .605019601062D-02  .886805355549D-05  .515373346710D+04
     .496800000000D+06 -.279396772385D-07 -.549998458718D+00  .894069671631D-07
     .974866959762D+00  .214750000000D+03 -.167217925023D+00 -.772175021332D-08
     .259653672761D-09  .100000000000D+01  .161800000000D+04  .000000000000D+00
     .240000000000D+01  .000000000000D+00 -.977888703346D-08  .510000000000D+02
     .489606000000D+06  .400000000000D+01
17 11  1 14 18  0  0.0  .181654933840D-03  .682121026330D-12  .000000000000D+00
     .107000000000D+03 -.753125000000D+01  .481055752189D-08  .498892922424D+00
    -.430271029472D-06  .595692289062D-02  .696256756783D-05  .515369577599D+04
     .496800000000D+06 -.372529029846D-07  .492445950705D+00  .104308128357D-06
     .961008694372D+00  .246562500000D+03 -.247736910798D+01 -.808926552181D-08
     .181078971237D-09  .100000000000D+01  .161800000000D+04  .000000000000D+00
     .240000000000D+01  .000000000000D+00 -.102445483208D-07  .107000000000D+03
     .489606000000D+06  .400000000000D+01
18 11  1 14 18  0  0.0  .115927774459D-03  .204636307899D-11  .000000000000D+00
     .150000000000D+02  .760937500000D+02  .502342353147D-08  .182533248481D+01
     .390224158764D-05  .118417936610D-01  .822357833385D-05  .515376291275D+04
     .496800000000D+06 -.329688191414D-06  .257826994725D+01 -.108033418655D-06
     .934567400986D+00  .209187500000D+03 -.227802667958D+01 -.828891669522D-08
    -.118933525487D-09  .100000000000D+01  .161800000000D+04  .000000000000D+00
     .240000000000D+01  .000000000000D+00 -.107102096081D-07  .150000000000D+02
     .489606000000D+06  .400000000000D+01
19 11  1 14 18  0  0.0 -.101485755295D-03 -.363797880709D-11  .000000000000D+00
     .930000000000D+02 -.148750000000D+02  .483805866742D-08 -.285798658856D+00
    -.786036252975D-06  .689096190035D-02  .693649053574D-05  .515360398865D+04
     .496800000000D+06  .115483999252D-06  .546832215380D+00 -.242143869400D-07
     .958521585883D+00  .243281250000D+03 -.157573217728D-01 -.815355391396D-08
     .148220459691D-09  .100000000000D+01  .161800000000D+04  .000000000000D+00
     .240000000000D+01  .000000000000D+00 -.149011611938D-07  .930000000000D+02
     .489606000000D+06  .400000000000D+01
20 11  1 14 18  0  0.0  .487943179905D-04 -.113686837722D-12  .000000000000D+00
     .330000000000D+02  .958437500000D+02  .492413368136D-08  .219759966849D+01
     .483728945255D-05  .462653161958D-02  .826269388199D-05  .515375724792D+04
     .496800000000D+06  .279396772385D-07  .252434090006D+01 -.875443220139D-07
     .934590038181D+00  .204125000000D+03  .126327544692D+01 -.816033991091D-08
    -.128219626576D-09  .100000000000D+01  .161800000000D+04  .000000000000D+00
     .240000000000D+01  .000000000000D+00 -.791624188423D-08  .330000000000D+02
     .489606000000D+06  .400000000000D+01
21 11  1 14 18  0  0.0 -.116654671729D-03 -.272848410532D-11  .000000000000D+00
     .780000000000D+02  .218750000000D+00  .520164524083D-08  .309229287023D+01
    -.931322574615D-07  .171374855563D-01  .862032175064D-05  .515359437370D+04
     .496800000000D+06 -.596046447754D-07  .152283215545D+01 -.221654772758D-06
     .931558514968D+00  .198843750000D+03 -.241984718081D+01 -.798354683249D-08
    -.246081678861D-09  .100000000000D+01  .161800000000D+04  .000000000000D+00
     .240000000000D+01  .000000000000D+00 -.116415321827D-07  .780000000000D+02
     .489606000000D+06  .400000000000D+01
22 11  1 14 18  0  0.0  .155126675963D-03 -.795807864051D-12  .000000000000D+00
     .570000000000D+02  .762812500000D+02  .516592946741D-08  .969829363320D+00
     .403635203838D-05  .537573825568D-02  .795535743237D-05  .515372228050D+04
     .496800000000D+06 -.912696123123D-07  .258268725179D+01  .558793544769D-07
     .932263616613D+00  .212718750000D+03 -.194202326308D+01 -.842285084555D-08
    -.141434462742D-09  .100000000000D+01  .161800000000D+04  .000000000000D+00
     .340000000000D+01  .000000000000D+00 -.176951289177D-07  .570000000000D+02
     .489606000000D+06  .400000000000D+01
23 11  1 14 18  0  0.0  .332206021994D-03 -.227373675443D-11  .000000000000D+00
     .101000000000D+03  .382812500000D+02  .447161483213D-08 -.741458067150D+00
     .192783772945D-05  .693835737184D-02  .311061739922D-05  .515360402107D+04
     .496800000000D+06  .689178705215D-07 -.266613241064D+01 -.119209289551D-06
     .966063869238D+00  .321625000000D+03  .313304083241D+01 -.830248868912D-08
    -.303584074067D-10  .100000000000D+01  .161800000000D+04  .000000000000D+00
     .240000000000D+01  .000000000000D+00 -.200234353542D-07  .101000000000D+03
     .489606000000D+06  .400000000000D+01
24 11  1 14 18  0  0.0  .356493517756D-03  .318323145621D-11  .000000000000D+00
     .970000000000D+02  .132500000000D+02  .493627704432D-08 -.136859121788D+01
     .543892383575D-06  .575781927910D-02  .868178904057D-05  .515372634315D+04
     .496800000000D+06  .149011611938D-07  .156542546591D+01 -.111758708954D-06
     .948164133196D+00  .206843750000D+03 -.325009398426D+00 -.811533803640D-08
    -.223223583873D-09  .100000000000D+01  .161800000000D+04  .000000000000D+00
     .340000000000D+01  .000000000000D+00 -.139698386192D-08  .970000000000D+02
     .489606000000D+06  .400000000000D+01
25 11  1 14 18  0  0.0 -.635702162981D-04 -.204636307899D-11  .000000000000D+00
     .115000000000D+03 -.505625000000D+02  .425910598029D-08  .150509501252D+01
    -.254437327385D-05  .437426846474D-03  .847131013870D-05  .515371811104D+04
     .496800000000D+06  .149011611938D-07 -.595962465555D+00 -.540167093277D-07
     .962506536695D+00  .216500000000D+03  .151679801775D+01 -.789318592573D-08
     .322870591713D-09  .100000000000D+01  .161800000000D+04  .100000000000D+01
     .240000000000D+01  .000000000000D+00  .465661287308D-08  .115000000000D+03
     .489606000000D+06  .400000000000D+01
